start=new Date('2021-11-10T00:00:00.000Z').valueOf();
sats=[{"APOAPSIS":"548.192","MEAN_MOTION_DDOT":"0.0000000000000","ARG_OF_PERICENTER":"72.8827","DECAY_DATE":null,"MEAN_MOTION":"15.06404687","MEAN_ANOMALY":"287.2319","REF_FRAME":"TEME","FILE":"3210180","TLE_LINE2":"2 47583  53.0533 279.3210 0001433  72.8827 287.2319 15.06404687 42499","PERIOD":"95.592","OBJECT_TYPE":"PAYLOAD","OBJECT_NAME":"STARLINK-1987","TIME_SYSTEM":"UTC","RCS_SIZE":"LARGE","PERIAPSIS":"546.207","MEAN_ELEMENT_THEORY":"SGP4","GP_ID":"189360539","OBJECT_ID":"2021-009AM","COUNTRY_CODE":"US","RA_OF_ASC_NODE":"279.3210","CLASSIFICATION_TYPE":"U","ELEMENT_SET_NO":"999","BSTAR":"0.00046134000000","EPHEMERIS_TYPE":"0","LAUNCH_DATE":"2021-02-04","TLE_LINE1":"1 47583U 21009AM  21313.61992692  .00006598  00000-0  46134-3 0  9992","EPOCH":"2021-11-09T14:52:41.685888","CENTER_NAME":"EARTH","SEMIMAJOR_AXIS":"6925.334","NORAD_CAT_ID":"47583","ECCENTRICITY":"0.00014330","SITE":"AFETR","MEAN_MOTION_DOT":"0.00006598","REV_AT_EPOCH":"4249","INCLINATION":"53.0533"},{"BSTAR":"0.00015455000000","EPHEMERIS_TYPE":"0","TLE_LINE1":"1 47584U 21009AN  21313.80986312  .00013660  00000-0  15455-3 0  9996","LAUNCH_DATE":"2021-02-04","EPOCH":"2021-11-09T19:26:12.173568","CENTER_NAME":"EARTH","OBJECT_ID":"2021-009AN","COUNTRY_CODE":"US","RA_OF_ASC_NODE":"201.2092","CLASSIFICATION_TYPE":"U","ELEMENT_SET_NO":"999","SITE":"AFETR","MEAN_MOTION_DOT":"0.00013660","REV_AT_EPOCH":"4360","INCLINATION":"53.0521","SEMIMAJOR_AXIS":"6757.748","NORAD_CAT_ID":"47584","ECCENTRICITY":"0.00038460","MEAN_MOTION":"15.62787011","MEAN_ANOMALY":"52.1834","REF_FRAME":"TEME","FILE":"3210180","TLE_LINE2":"2 47584  53.0521 201.2092 0003846 307.8832  52.1834 15.62787011 43608","PERIOD":"92.143","OBJECT_TYPE":"PAYLOAD","APOAPSIS":"382.212","MEAN_MOTION_DDOT":"0.0000000000000","ARG_OF_PERICENTER":"307.8832","DECAY_DATE":null,"GP_ID":"189360789","OBJECT_NAME":"STARLINK-1988","TIME_SYSTEM":"UTC","RCS_SIZE":"LARGE","MEAN_ELEMENT_THEORY":"SGP4","PERIAPSIS":"377.014"},{"REV_AT_EPOCH":"4249","INCLINATION":"53.0545","MEAN_MOTION_DOT":"0.00004832","SITE":"AFETR","NORAD_CAT_ID":"47585","ECCENTRICITY":"0.00065470","SEMIMAJOR_AXIS":"6925.289","EPOCH":"2021-11-09T15:29:49.427808","CENTER_NAME":"EARTH","LAUNCH_DATE":"2021-02-04","TLE_LINE1":"1 47585U 21009AP  21313.64571097  .00004832  00000-0  34289-3 0  9996","BSTAR":"0.00034289000000","EPHEMERIS_TYPE":"0","ELEMENT_SET_NO":"999","RA_OF_ASC_NODE":"279.1936","CLASSIFICATION_TYPE":"U","OBJECT_ID":"2021-009AP","COUNTRY_CODE":"US","GP_ID":"189362041","RCS_SIZE":"LARGE","MEAN_ELEMENT_THEORY":"SGP4","PERIAPSIS":"542.620","TIME_SYSTEM":"UTC","OBJECT_NAME":"STARLINK-1989","PERIOD":"95.591","OBJECT_TYPE":"PAYLOAD","TLE_LINE2":"2 47585  53.0545 279.1936 0006547  38.1401 322.0050 15.06419495 42494","REF_FRAME":"TEME","FILE":"3210180","MEAN_ANOMALY":"322.0050","MEAN_MOTION":"15.06419495","DECAY_DATE":null,"ARG_OF_PERICENTER":"38.1401","MEAN_MOTION_DDOT":"0.0000000000000","APOAPSIS":"551.688"},{"PERIOD":"95.591","OBJECT_TYPE":"PAYLOAD","TLE_LINE2":"2 47586  53.0549 298.9690 0001402  67.2023 292.9114 15.06417490 42223","REF_FRAME":"TEME","FILE":"3210180","MEAN_MOTION":"15.06417490","MEAN_ANOMALY":"292.9114","DECAY_DATE":null,"ARG_OF_PERICENTER":"67.2023","MEAN_MOTION_DDOT":"0.0000000000000","APOAPSIS":"548.131","GP_ID":"189362292","RCS_SIZE":"LARGE","PERIAPSIS":"546.189","MEAN_ELEMENT_THEORY":"SGP4","TIME_SYSTEM":"UTC","OBJECT_NAME":"STARLINK-1990","EPOCH":"2021-11-09T16:41:28.011840","CENTER_NAME":"EARTH","TLE_LINE1":"1 47586U 21009AQ  21313.69546310  .00005991  00000-0  42058-3 0  9992","LAUNCH_DATE":"2021-02-04","BSTAR":"0.00042058000000","EPHEMERIS_TYPE":"0","ELEMENT_SET_NO":"999","RA_OF_ASC_NODE":"298.9690","CLASSIFICATION_TYPE":"U","OBJECT_ID":"2021-009AQ","COUNTRY_CODE":"US","REV_AT_EPOCH":"4222","INCLINATION":"53.0549","MEAN_MOTION_DOT":"0.00005991","SITE":"AFETR","NORAD_CAT_ID":"47586","ECCENTRICITY":"0.00014020","SEMIMAJOR_AXIS":"6925.295"},{"DECAY_DATE":null,"ARG_OF_PERICENTER":"68.9994","MEAN_MOTION_DDOT":"0.0000000000000","APOAPSIS":"548.395","OBJECT_TYPE":"PAYLOAD","PERIOD":"95.593","TLE_LINE2":"2 47587  53.0560 270.7840 0001663  68.9994 291.1173 15.06390357 42583","FILE":"3210161","REF_FRAME":"TEME","MEAN_ANOMALY":"291.1173","MEAN_MOTION":"15.06390357","MEAN_ELEMENT_THEORY":"SGP4","PERIAPSIS":"546.091","RCS_SIZE":"LARGE","TIME_SYSTEM":"UTC","OBJECT_NAME":"STARLINK-1991","GP_ID":"189337790","ELEMENT_SET_NO":"999","CLASSIFICATION_TYPE":"U","RA_OF_ASC_NODE":"270.7840","COUNTRY_CODE":"US","OBJECT_ID":"2021-009AR","CENTER_NAME":"EARTH","EPOCH":"2021-11-09T07:01:36.272352","LAUNCH_DATE":"2021-02-04","TLE_LINE1":"1 47587U 21009AR  21313.29278093 -.00001202  00000-0 -61789-4 0  9995","BSTAR":"-0.00006178900000","EPHEMERIS_TYPE":"0","NORAD_CAT_ID":"47587","ECCENTRICITY":"0.00016630","SEMIMAJOR_AXIS":"6925.378","REV_AT_EPOCH":"4258","INCLINATION":"53.0560","MEAN_MOTION_DOT":"-0.00001202","SITE":"AFETR"},{"SEMIMAJOR_AXIS":"6925.383","NORAD_CAT_ID":"47588","ECCENTRICITY":"0.00014670","MEAN_MOTION_DOT":"-0.00000781","INCLINATION":"53.0537","REV_AT_EPOCH":"4249","SITE":"AFETR","ELEMENT_SET_NO":"999","OBJECT_ID":"2021-009AS","COUNTRY_CODE":"US","RA_OF_ASC_NODE":"279.3423","CLASSIFICATION_TYPE":"U","TLE_LINE1":"1 47588U 21009AS  21313.61622764 -.00000781  00000-0 -33524-4 0  9997","LAUNCH_DATE":"2021-02-04","EPOCH":"2021-11-09T14:47:22.068096","CENTER_NAME":"EARTH","BSTAR":"-0.00003352400000","EPHEMERIS_TYPE":"0","RCS_SIZE":"LARGE","MEAN_ELEMENT_THEORY":"SGP4","PERIAPSIS":"546.232","OBJECT_NAME":"STARLINK-1993","TIME_SYSTEM":"UTC","GP_ID":"189361290","ARG_OF_PERICENTER":"71.4976","DECAY_DATE":null,"APOAPSIS":"548.264","MEAN_MOTION_DDOT":"0.0000000000000","TLE_LINE2":"2 47588  53.0537 279.3423 0001467  71.4976 288.6173 15.06388653 42498","PERIOD":"95.593","OBJECT_TYPE":"PAYLOAD","MEAN_MOTION":"15.06388653","MEAN_ANOMALY":"288.6173","REF_FRAME":"TEME","FILE":"3210180"},{"APOAPSIS":"548.239","MEAN_MOTION_DDOT":"0.0000000000000","ARG_OF_PERICENTER":"72.8716","DECAY_DATE":null,"MEAN_MOTION":"15.06384772","MEAN_ANOMALY":"287.2428","FILE":"3210180","REF_FRAME":"TEME","TLE_LINE2":"2 47589  53.0559 279.2476 0001413  72.8716 287.2428 15.06384772 42494","OBJECT_TYPE":"PAYLOAD","PERIOD":"95.593","OBJECT_NAME":"STARLINK-1994","TIME_SYSTEM":"UTC","PERIAPSIS":"546.282","MEAN_ELEMENT_THEORY":"SGP4","RCS_SIZE":"LARGE","GP_ID":"189361541","COUNTRY_CODE":"US","OBJECT_ID":"2021-009AT","CLASSIFICATION_TYPE":"U","RA_OF_ASC_NODE":"279.2476","ELEMENT_SET_NO":"999","EPHEMERIS_TYPE":"0","BSTAR":"0.00028798000000","TLE_LINE1":"1 47589U 21009AT  21313.63467984  .00004009  00000-0  28798-3 0  9992","LAUNCH_DATE":"2021-02-04","CENTER_NAME":"EARTH","EPOCH":"2021-11-09T15:13:56.338176","SEMIMAJOR_AXIS":"6925.395","NORAD_CAT_ID":"47589","ECCENTRICITY":"0.00014130","SITE":"AFETR","MEAN_MOTION_DOT":"0.00004009","REV_AT_EPOCH":"4249","INCLINATION":"53.0559"},{"GP_ID":"189361792","OBJECT_NAME":"STARLINK-1995","TIME_SYSTEM":"UTC","PERIAPSIS":"546.041","MEAN_ELEMENT_THEORY":"SGP4","RCS_SIZE":"LARGE","MEAN_MOTION":"15.06414773","MEAN_ANOMALY":"290.4683","FILE":"3210180","REF_FRAME":"TEME","TLE_LINE2":"2 47590  53.0547 298.9888 0001628  69.6481 290.4683 15.06414773 42224","OBJECT_TYPE":"PAYLOAD","PERIOD":"95.591","APOAPSIS":"548.296","MEAN_MOTION_DDOT":"0.0000000000000","ARG_OF_PERICENTER":"69.6481","DECAY_DATE":null,"SITE":"AFETR","MEAN_MOTION_DOT":"0.00003591","REV_AT_EPOCH":"4222","INCLINATION":"53.0547","SEMIMAJOR_AXIS":"6925.303","NORAD_CAT_ID":"47590","ECCENTRICITY":"0.00016280","BSTAR":"0.00025974000000","EPHEMERIS_TYPE":"0","TLE_LINE1":"1 47590U 21009AU  21313.69177788  .00003591  00000-0  25974-3 0  9998","LAUNCH_DATE":"2021-02-04","CENTER_NAME":"EARTH","EPOCH":"2021-11-09T16:36:09.608832","COUNTRY_CODE":"US","OBJECT_ID":"2021-009AU","CLASSIFICATION_TYPE":"U","RA_OF_ASC_NODE":"298.9888","ELEMENT_SET_NO":"999"},{"MEAN_ELEMENT_THEORY":"SGP4","PERIAPSIS":"546.070","RCS_SIZE":"LARGE","TIME_SYSTEM":"UTC","OBJECT_NAME":"STARLINK-1996","GP_ID":"189360540","DECAY_DATE":null,"ARG_OF_PERICENTER":"73.7467","MEAN_MOTION_DDOT":"0.0000000000000","APOAPSIS":"548.311","OBJECT_TYPE":"PAYLOAD","PERIOD":"95.592","TLE_LINE2":"2 47591  53.0543 279.2519 0001618  73.7467 286.3700 15.06407484 42497","FILE":"3210180","REF_FRAME":"TEME","MEAN_MOTION":"15.06407484","MEAN_ANOMALY":"286.3700","NORAD_CAT_ID":"47591","ECCENTRICITY":"0.00016180","SEMIMAJOR_AXIS":"6925.326","INCLINATION":"53.0543","REV_AT_EPOCH":"4249","MEAN_MOTION_DOT":"0.00005490","SITE":"AFETR","ELEMENT_SET_NO":"999","CLASSIFICATION_TYPE":"U","RA_OF_ASC_NODE":"279.2519","COUNTRY_CODE":"US","OBJECT_ID":"2021-009AV","CENTER_NAME":"EARTH","EPOCH":"2021-11-09T15:08:35.501280","TLE_LINE1":"1 47591U 21009AV  21313.63096645  .00005490  00000-0  38711-3 0  9998","LAUNCH_DATE":"2021-02-04","EPHEMERIS_TYPE":"0","BSTAR":"0.00038711000000"},{"BSTAR":"-0.00010676000000","EPHEMERIS_TYPE":"0","LAUNCH_DATE":"2021-02-04","TLE_LINE1":"1 47592U 21009AW  21313.66229999 -.00001871  00000-0 -10676-3 0  9993","CENTER_NAME":"EARTH","EPOCH":"2021-11-09T15:53:42.719136","COUNTRY_CODE":"US","OBJECT_ID":"2021-009AW","CLASSIFICATION_TYPE":"U","RA_OF_ASC_NODE":"299.1346","ELEMENT_SET_NO":"999","SITE":"AFETR","MEAN_MOTION_DOT":"-0.00001871","INCLINATION":"53.0564","REV_AT_EPOCH":"4221","SEMIMAJOR_AXIS":"6925.370","NORAD_CAT_ID":"47592","ECCENTRICITY":"0.00014380","MEAN_ANOMALY":"287.0906","MEAN_MOTION":"15.06393149","FILE":"3210180","REF_FRAME":"TEME","TLE_LINE2":"2 47592  53.0564 299.1346 0001438  73.0240 287.0906 15.06393149 42210","OBJECT_TYPE":"PAYLOAD","PERIOD":"95.593","MEAN_MOTION_DDOT":"0.0000000000000","APOAPSIS":"548.230","ARG_OF_PERICENTER":"73.0240","DECAY_DATE":null,"GP_ID":"189360790","OBJECT_NAME":"STARLINK-1997","TIME_SYSTEM":"UTC","MEAN_ELEMENT_THEORY":"SGP4","PERIAPSIS":"546.239","RCS_SIZE":"LARGE"}];
